NORAD_CAT_ID,OBJECT_NAME,OBJECT_TYPE,EPOCH,MEAN_MOTION,ECCENTRICITY,INCLINATION,RA_OF_ASC_NODE,ARG_OF_PERICENTER,MEAN_ANOMALY,BSTAR,MEAN_MOTION_DOT,MEAN_MOTION_DDOT,TLE_LINE0,TLE_LINE1,TLE_LINE2,SEMIMAJOR_AXIS,PERIOD,APOGEE,PERIGEE,DECAYED
54207.0,STARLINK-5262,PAYLOAD,2023-04-05 10:39:16,15.08841965,0.0001212,53.2171,113.754,106.3339,253.7787,3.7312e-05,3.06e-06,0.0,0 STARLINK-5262,1 54207U 22141BC  23095.44394322  .00000306  00000-0  37312-4 0  9997,2 54207  53.2171 113.7540 0001212 106.3339 253.7787 15.08841965 24586,6917.874,95.437,540.578,538.901,0.0
54207.0,STARLINK-5262,PAYLOAD,2023-04-06 00:57:44,15.08844173,0.0001385,53.2181,111.0785,114.6106,245.503,2.3876e-05,9.2e-07,0.0,0 STARLINK-5262,1 54207U 22141BC  23096.04010228  .00000092  00000-0  23876-4 0  9996,2 54207  53.2181 111.0785 0001385 114.6106 245.5030 15.08844173 24904,6917.868,95.437,540.691,538.775,0.0
54207.0,STARLINK-5262,PAYLOAD,2023-04-06 07:19:17,15.08845393,0.0001379,53.2182,109.8892,115.6601,244.4534,3.5811e-05,2.82e-06,0.0,0 STARLINK-5262,1 54207U 22141BC  23096.30506039  .00000282  00000-0  35811-4 0  9998,2 54207  53.2182 109.8892 0001379 115.6601 244.4534 15.08845393 24714,6917.864,95.437,540.683,538.775,0.0
54207.0,STARLINK-5262,PAYLOAD,2023-04-06 18:26:59,15.08841808,0.0001281,53.2179,107.8088,102.8249,257.2886,8.2791e-06,-1.56e-06,0.0,0 STARLINK-5262,1 54207U 22141BC  23096.76874353 -.00000156  00000-0  82791-5 0  9996,2 54207  53.2179 107.8088 0001281 102.8249 257.2886 15.08841808 24789,6917.875,95.437,540.626,538.854,0.0
54207.0,STARLINK-5262,PAYLOAD,2023-04-07 05:34:41,15.0883693,0.0001339,53.2181,105.7267,103.9025,256.2116,5.5356e-05,5.93e-06,0.0,0 STARLINK-5262,1 54207U 22141BC  23097.23242705  .00000593  00000-0  55356-4 0  9999,2 54207  53.2181 105.7267 0001339 103.9025 256.2116 15.08836930 25085,6917.89,95.438,540.681,538.828,0.0
54207.0,STARLINK-5262,PAYLOAD,2023-04-07 07:10:04,15.08837316,0.0001341,53.2182,105.4296,102.596,257.5182,5.4802e-05,5.84e-06,0.0,0 STARLINK-5262,1 54207U 22141BC  23097.29866687  .00000584  00000-0  54802-4 0  9991,2 54207  53.2182 105.4296 0001341 102.5960 257.5182 15.08837316 24862,6917.889,95.438,540.681,538.826,0.0
54207.0,STARLINK-5262,PAYLOAD,2023-04-08 07:00:51,15.08840009,0.0001375,53.2179,100.9679,110.0164,250.0977,5.4407e-05,5.78e-06,0.0,0 STARLINK-5262,1 54207U 22141BC  23098.29226505  .00000578  00000-0  54407-4 0  9995,2 54207  53.2179 100.9679 0001375 110.0164 250.0977 15.08840009 25246,6917.88,95.438,540.697,538.794,0.0
54207.0,STARLINK-5262,PAYLOAD,2023-04-08 16:33:12,15.0881644,0.000124,53.2184,99.1853,103.0936,257.0195,-0.00011627,-2.137e-05,0.0,0 STARLINK-5262,1 54207U 22141BC  23098.68972901 -.00002137  00000-0 -11627-3 0  9997,2 54207  53.2184  99.1853 0001240 103.0936 257.0195 15.08816440 25303,6917.952,95.439,540.675,538.96,0.0
54207.0,STARLINK-5262,PAYLOAD,2023-04-09 00:30:08,15.08821233,0.000109,53.2177,97.6976,102.7575,257.3539,-1.5546e-05,-5.35e-06,0.0,0 STARLINK-5262,1 54207U 22141BC  23099.02092676 -.00000535  00000-0 -15546-4 0  9993,2 54207  53.2177  97.6976 0001090 102.7575 257.3539 15.08821233 25358,6917.938,95.439,540.557,539.049,0.0
54207.0,STARLINK-5262,PAYLOAD,2023-04-09 06:51:40,15.08828037,0.0001094,53.2181,96.5096,100.6533,259.4582,4.3473e-05,4.04e-06,0.0,0 STARLINK-5262,1 54207U 22141BC  23099.28588440  .00000404  00000-0  43473-4 0  9993,2 54207  53.2181  96.5096 0001094 100.6533 259.4582 15.08828037 25393,6917.917,95.438,540.539,539.025,0.0
54207.0,STARLINK-5262,PAYLOAD,2023-04-09 16:23:58,15.08835598,0.0001175,53.2178,94.7248,113.5,246.6115,7.5656e-05,9.16e-06,0.0,0 STARLINK-5262,1 54207U 22141BC  23099.68332135  .00000916  00000-0  75656-4 0  9991,2 54207  53.2178  94.7248 0001175 113.5000 246.6115 15.08835598 25457,6917.894,95.438,540.572,538.946,0.0
54207.0,STARLINK-5262,PAYLOAD,2023-04-10 09:53:12,15.08852089,0.0001137,53.2175,91.4538,101.6673,258.4447,0.00032408,4.875e-05,0.0,0 STARLINK-5262,1 54207U 22141BC  23100.41195547  .00004875  00000-0  32408-3 0  9994,2 54207  53.2175  91.4538 0001137 101.6673 258.4447 15.08852089 25567,6917.843,95.437,540.495,538.922,0.0
54207.0,STARLINK-5262,PAYLOAD,2023-04-10 16:14:45,15.08849598,0.0001086,53.2178,90.2646,107.7325,252.3786,0.00040713,6.199e-05,0.0,0 STARLINK-5262,1 54207U 22141BC  23100.67691800  .00006199  00000-0  40713-3 0  9994,2 54207  53.2178  90.2646 0001086 107.7325 252.3786 15.08849598 25370,6917.851,95.437,540.467,538.965,0.0
54207.0,STARLINK-5262,PAYLOAD,2023-04-11 03:22:27,15.08853067,0.0001099,53.2183,88.1833,106.7266,253.3847,0.00035294,5.336e-05,0.0,0 STARLINK-5262,1 54207U 22141BC  23101.14059477  .00005336  00000-0  35294-3 0  9995,2 54207  53.2183  88.1833 0001099 106.7266 253.3847 15.08853067 25675,6917.84,95.437,540.466,538.945,0.0
54207.0,STARLINK-5262,PAYLOAD,2023-04-11 04:57:50,15.08856397,0.0001199,53.2181,87.886,106.8177,253.2947,0.00031366,4.71e-05,0.0,0 STARLINK-5262,1 54207U 22141BC  23101.20683278  .00004710  00000-0  31366-3 0  9995,2 54207  53.2181  87.8860 0001199 106.8177 253.2947 15.08856397 25457,6917.83,95.437,540.525,538.866,0.0
54207.0,STARLINK-5262,PAYLOAD,2023-04-12 11:10:09,15.08846735,0.000121,53.2177,82.2355,97.595,262.5179,3.5285e-05,2.74e-06,0.0,0 STARLINK-5262,1 54207U 22141BC  23102.46539110  .00000274  00000-0  35285-4 0  9995,2 54207  53.2177  82.2355 0001210  97.5950 262.5179 15.08846735 25645,6917.86,95.437,540.562,538.888,0.0
54207.0,STARLINK-5262,PAYLOAD,2023-04-12 15:56:19,15.08839414,8.03e-05,53.219,81.3445,97.78,262.3283,-0.00010525,-1.962e-05,0.0,0 STARLINK-5262,1 54207U 22141BC  23102.66411352 -.00001962  00000-0 -10525-3 0  9990,2 54207  53.2190  81.3445 0000803  97.7800 262.3283 15.08839414 25902,6917.882,95.438,540.303,539.192,0.0
54207.0,STARLINK-5262,PAYLOAD,2023-04-13 07:50:10,15.08848133,0.0001205,53.218,78.3702,91.7455,268.3675,9.5234e-05,1.228e-05,0.0,0 STARLINK-5262,1 54207U 22141BC  23103.32651112  .00001228  00000-0  95234-4 0  9998,2 54207  53.2180  78.3702 0001205  91.7455 268.3675 15.08848133 25774,6917.856,95.437,540.554,538.887,0.0
54207.0,STARLINK-5262,PAYLOAD,2023-04-14 07:40:57,15.08853904,0.0001298,53.2189,73.9086,101.5251,258.5887,0.0003808,5.78e-05,0.0,0 STARLINK-5262,1 54207U 22141BC  23104.32010964  .00005780  00000-0  38080-3 0  9995,2 54207  53.2189  73.9086 0001298 101.5251 258.5887 15.08853904 25920,6917.838,95.437,540.601,538.805,0.0
54207.0,STARLINK-5262,PAYLOAD,2023-04-15 04:20:58,15.08851886,0.0001334,53.219,70.0421,111.6508,248.4626,0.00025392,3.757e-05,0.0,0 STARLINK-5262,1 54207U 22141BC  23105.18122815  .00003757  00000-0  25392-3 0  9993,2 54207  53.2190  70.0421 0001334 111.6508 248.4626 15.08851886 26287,6917.844,95.437,540.632,538.786,0.0
54207.0,STARLINK-5262,PAYLOAD,2023-04-15 21:50:12,15.08842718,0.0001218,53.2188,66.7724,103.7913,256.3215,0.00010463,1.378e-05,0.0,0 STARLINK-5262,1 54207U 22141BC  23105.90987035  .00001378  00000-0  10463-3 0  9996,2 54207  53.2188  66.7724 0001218 103.7913 256.3215 15.08842718 26393,6917.872,95.437,540.58,538.894,0.0
54207.0,STARLINK-5262,PAYLOAD,2023-04-16 05:47:08,15.08844304,0.0001046,53.2187,65.2871,90.5298,269.5814,9.855e-05,1.281e-05,0.0,0 STARLINK-5262,1 54207U 22141BC  23106.24106988  .00001281  00000-0  98550-4 0  9991,2 54207  53.2187  65.2871 0001046  90.5298 269.5814 15.08844304 26212,6917.867,95.437,540.456,539.009,0.0
54207.0,STARLINK-5262,PAYLOAD,2023-04-16 21:41:00,15.08838057,0.0001134,53.2195,62.3147,105.7167,254.395,2.1025e-05,4.7e-07,0.0,0 STARLINK-5262,1 54207U 22141BC  23106.90347547  .00000047  00000-0  21025-4 0  9994,2 54207  53.2195  62.3147 0001134 105.7167 254.3950 15.08838057 26319,6917.886,95.438,540.536,538.967,0.0
54207.0,STARLINK-5262,PAYLOAD,2023-04-17 04:02:32,15.0884357,0.0001169,53.2203,61.1278,104.7288,255.3834,0.00016419,2.326e-05,0.0,0 STARLINK-5262,1 54207U 22141BC  23107.16843335  .00002326  00000-0  16419-3 0  9991,2 54207  53.2203  61.1278 0001169 104.7288 255.3834 15.08843570 26589,6917.869,95.437,540.543,538.926,0.0
54207.0,STARLINK-5262,PAYLOAD,2023-04-17 07:13:18,15.08848677,0.0001046,53.2191,60.5299,99.1109,261.0001,0.00040309,6.135e-05,0.0,0 STARLINK-5262,1 54207U 22141BC  23107.30091247  .00006135  00000-0  40309-3 0  9991,2 54207  53.2191  60.5299 0001046  99.1109 261.0001 15.08848677 26374,6917.854,95.437,540.442,538.995,0.0
54207.0,STARLINK-5262,PAYLOAD,2023-04-17 21:31:48,15.08822724,0.0001251,53.2193,57.8543,104.079,256.0342,-3.4296e-05,-8.33e-06,0.0,0 STARLINK-5262,1 54207U 22141BC  23107.89708770 -.00000833  00000-0 -34296-4 0  9991,2 54207  53.2193  57.8543 0001251 104.0790 256.0342 15.08822724 26464,6917.933,95.439,540.664,538.933,0.0
54207.0,STARLINK-5262,PAYLOAD,2023-04-18 05:28:44,15.088216,0.0001285,53.2191,56.3648,93.4242,266.6897,-8.2301e-05,-1.597e-05,0.0,0 STARLINK-5262,1 54207U 22141BC  23108.22829273 -.00001597  00000-0 -82301-4 0  9999,2 54207  53.2191  56.3648 0001285  93.4242 266.6897 15.08821600 26747,6917.937,95.439,540.691,538.913,0.0
54207.0,STARLINK-5262,PAYLOAD,2023-04-18 07:04:07,15.08821818,0.0001143,53.2187,56.0679,100.0764,260.0357,-7.7385e-05,-1.519e-05,0.0,0 STARLINK-5262,1 54207U 22141BC  23108.29453263 -.00001519  00000-0 -77385-4 0  9998,2 54207  53.2187  56.0679 0001143 100.0764 260.0357 15.08821818 26526,6917.936,95.439,540.592,539.01,0.0
54207.0,STARLINK-5262,PAYLOAD,2023-04-18 19:47:12,15.08840517,9.64e-05,53.2191,53.6903,100.2632,259.8468,0.00025506,3.774e-05,0.0,0 STARLINK-5262,1 54207U 22141BC  23108.82444909  .00003774  00000-0  25506-3 0  9994,2 54207  53.2191  53.6903 0000964 100.2632 259.8468 15.08840517 26830,6917.879,95.438,540.411,539.077,0.0
54207.0,STARLINK-5262,PAYLOAD,2023-04-19 05:19:30,15.08863005,0.0001018,53.2184,51.9065,103.8155,256.295,0.00089146,0.00013937,0.0,0 STARLINK-5262,1 54207U 22141BC  23109.22188390  .00013937  00000-0  89146-3 0  9990,2 54207  53.2184  51.9065 0001018 103.8155 256.2950 15.08863005 26892,6917.81,95.436,540.379,538.971,0.0
